      2.10          N: GNSS NAV DATA                        RINEX VERSION / TYPE
fic2rin                                 07/03/2024 00:59:02 PGM / RUN BY / DATE
                                                            END OF HEADER
5  24  7  2  2  0  0.0 -.178301241249D-03 -.136424205266D-11  .000000000000D+00
     .210000000000D+02 -.105218750000D+03  .395195032888D-08 -.220109562870D+01
    -.548548996449D-05  .594737532083D-02  .954046845436D-05  .515364284897D+04
     .180000000000D+06  .726431608200D-07  .239510127781D+01  .521540641785D-07
     .972039819372D+00  .193093750000D+03  .127697779157D+01 -.764674708914D-08
     .353943314588D-09  .100000000000D+01  .232100000000D+04  .000000000000D+00
     .240000000000D+01  .000000000000D+00 -.107102096081D-07  .210000000000D+02
     .172800000000D+06  .400000000000D+01
4  24  7  2  2  0  0.0  .395134091377D-03  .795807864051D-11  .000000000000D+00
     .350000000000D+02  .937500000000D+00  .479591405479D-08 -.289138223315D+01
     .109896063805D-06  .286869937554D-02  .738352537155D-05  .515372307205D+04
     .180000000000D+06 -.540167093277D-07 -.275845267946D+01 -.223517417908D-07
     .965372666778D+00  .243718750000D+03 -.296053198474D+01 -.793854495798D-08
     .437518224390D-09  .100000000000D+01  .232100000000D+04  .000000000000D+00
     .240000000000D+01  .000000000000D+00 -.465661287308D-08  .291000000000D+03
     .172800000000D+06  .400000000000D+01
2  24  7  2  2  0  0.0 -.407057348639D-03  .716227077646D-11  .000000000000D+00
     .148000000000D+03 -.644687500000D+02  .430017911972D-08 -.234697893577D+01
    -.298395752907D-05  .160040060291D-01  .232458114624D-05  .515369677544D+04
     .180000000000D+06  .856816768646D-07  .131121925883D+01  .234693288803D-06
     .967077570525D+00  .332343750000D+03 -.116795367103D+01 -.803462038848D-08
    -.450018745087D-10  .100000000000D+01  .232100000000D+04  .000000000000D+00
     .240000000000D+01  .000000000000D+00 -.176951289177D-07  .148000000000D+03
     .172800000000D+06  .400000000000D+01
1  24  7  2  2  0  0.0  .250071287155D-03 -.670752342558D-11  .000000000000D+00
     .920000000000D+02  .732500000000D+02  .567237913450D-08 -.112798076285D+01
     .382214784622D-05  .133737153374D-01  .974908471107D-05  .515378160858D+04
     .180000000000D+06  .193715095520D-06 -.682651588184D+00  .311061739922D-06
     .954280716571D+00  .189531250000D+03  .103149450856D+01 -.795711716015D-08
    -.438232539859D-09  .100000000000D+01  .232100000000D+04  .000000000000D+00
     .340000000000D+01  .630000000000D+02 -.195577740669D-07  .920000000000D+02
     .172800000000D+06  .400000000000D+01
3  24  7  2  2  0  0.0  .439620576799D-03  .171667124960D-10  .000000000000D+00
     .100000000000D+03 -.787500000000D+02  .376551399163D-08  .387702199730D+00
    -.437162816525D-05  .566276500467D-02  .105183571577D-04  .515370590782D+04
     .180000000000D+06 -.121071934700D-06  .244690345277D+01  .596046447754D-07
     .985126193592D+00  .191437500000D+03  .111335083011D+01 -.765924760984D-08
     .308227124611D-09  .100000000000D+01  .232100000000D+04  .000000000000D+00
     .340000000000D+01  .000000000000D+00  .139698386192D-08  .100000000000D+03
     .172800000000D+06  .400000000000D+01
27 24  7  2  3 59 44.0 -.300221145153D-04 -.113686837722D-11  .000000000000D+00
     .250000000000D+02  .968750000000D+02  .433018036939D-08 -.144968757397D+01
     .514276325703D-05  .125171414111D-01  .359490513802D-05  .515368742752D+04
     .187184000000D+06  .292435288429D-06  .340043447649D+00 -.540167093277D-07
     .961946932494D+00  .311406250000D+03  .798290506404D+00 -.809569436102D-08
     .635740766869D-10  .100000000000D+01  .232100000000D+04  .000000000000D+00
     .240000000000D+01  .000000000000D+00  .186264514923D-08  .250000000000D+02
     .180000000000D+06  .400000000000D+01
2  24  7  2  4  0  0.0 -.407005194575D-03  .716227077646D-11  .000000000000D+00
     .149000000000D+03 -.575312500000D+02  .438375402952D-08 -.129678826393D+01
    -.276416540146D-05  .160043432843D-01  .285170972347D-05  .515369732666D+04
     .187200000000D+06 -.294297933578D-06  .131115960688D+01  .949949026108D-07
     .967075510737D+00  .332875000000D+03 -.116797825537D+01 -.844106588999D-08
    -.714315468392D-12  .100000000000D+01  .232100000000D+04  .000000000000D+00
     .240000000000D+01  .000000000000D+00 -.176951289177D-07  .149000000000D+03
     .180000000000D+06  .400000000000D+01
1  24  7  2  4  0  0.0  .250022858381D-03 -.670752342558D-11  .000000000000D+00
     .930000000000D+02  .662187500000D+02  .592631828352D-08 -.779485323550D-01
     .368244946003D-05  .133723522304D-01  .101681798697D-04  .515377808762D+04
     .187200000000D+06 -.614672899246D-07 -.682710366770D+00  .169500708580D-06
     .954276744748D+00  .178156250000D+03  .103158816897D+01 -.818962684512D-08
    -.403945397376D-09  .100000000000D+01  .232100000000D+04  .000000000000D+00
     .340000000000D+01  .630000000000D+02 -.195577740669D-07  .930000000000D+02
     .180000000000D+06  .400000000000D+01
5  24  7  2  4  0  0.0 -.178311020136D-03 -.136424205266D-11  .000000000000D+00
     .250000000000D+02 -.994687500000D+02  .393587823084D-08 -.115115034382D+01
    -.484101474285D-05  .594734761398D-02  .103320926428D-04  .515364006424D+04
     .187200000000D+06 -.745058059692D-08  .239504614482D+01  .141561031342D-06
     .972041863068D+00  .183656250000D+03  .127722856499D+01 -.774675125471D-08
     .329656588663D-09  .100000000000D+01  .232100000000D+04  .000000000000D+00
     .240000000000D+01  .000000000000D+00 -.107102096081D-07  .250000000000D+02
     .180000000000D+06  .400000000000D+01
3  24  7  2  4  0  0.0  .439743977040D-03  .171667124960D-10  .000000000000D+00
     .108000000000D+03 -.841562500000D+02  .367658171581D-08  .143777490770D+01
    -.442005693913D-05  .566255010199D-02  .100973993540D-04  .515370637894D+04
     .187200000000D+06 -.106170773506D-06  .244684838707D+01 -.502914190292D-07
     .985128202178D+00  .195937500000D+03  .111343400432D+01 -.764531845820D-08
     .275011455331D-09  .100000000000D+01  .232100000000D+04  .000000000000D+00
     .340000000000D+01  .000000000000D+00  .139698386192D-08  .108000000000D+03
     .180000000000D+06  .400000000000D+01
7  24  7  2  4  0  0.0 -.789309851825D-04  .864019966684D-11  .000000000000D+00
     .520000000000D+02 -.153125000000D+02  .510342686393D-08  .192951912147D+01
    -.108778476715D-05  .186540199211D-01  .740960240364D-05  .515362427139D+04
     .187200000000D+06 -.251457095146D-06 -.174584919340D+01 -.379979610443D-06
     .949854770567D+00  .235843750000D+03 -.211242259605D+01 -.807105047736D-08
    -.339657005220D-09  .100000000000D+01  .232100000000D+04  .000000000000D+00
     .240000000000D+01  .000000000000D+00 -.111758708954D-07  .520000000000D+02
     .180000000000D+06  .400000000000D+01
16 24  7  2  4  0  0.0 -.248340424150D-03  .106865627458D-10  .000000000000D+00
     .140000000000D+02  .789375000000D+02  .437553940164D-08 -.581200990154D+00
     .418722629547D-05  .138173588784D-01  .993534922600D-05  .515358902359D+04
     .187200000000D+06  .260770320892D-07 -.612089971433D+00  .245869159698D-06
     .961753204104D+00  .188468750000D+03  .838531721081D+00 -.805319259065D-08
    -.385016037463D-09  .100000000000D+01  .232100000000D+04  .000000000000D+00
     .240000000000D+01  .000000000000D+00 -.102445483208D-07  .140000000000D+02
     .180000000000D+06  .400000000000D+01
12 24  7  2  4  0  0.0 -.518857035786D-03 -.318323145621D-11  .000000000000D+00
     .300000000000D+02  .965312500000D+02  .430232206613D-08  .119484872211D+01
     .476464629173D-05  .869707379024D-02  .109914690256D-04  .515363582420D+04
     .187200000000D+06 -.178813934326D-06 -.629915051839D+00 -.119209289551D-06
     .962276486975D+00  .169062500000D+03  .145658471338D+01 -.789818613401D-08
    -.358943522867D-09  .100000000000D+01  .232100000000D+04  .000000000000D+00
     .240000000000D+01  .000000000000D+00 -.125728547573D-07  .300000000000D+02
     .180000000000D+06  .400000000000D+01
24 24  7  2  4  0  0.0 -.481111463159D-03 -.204636307899D-11  .000000000000D+00
     .520000000000D+02 -.125000000000D+02  .548558563952D-08  .292794240215D+01
    -.836327672005D-06  .154267598409D-01  .660680234432D-05  .515370093536D+04
     .187200000000D+06  .409781932831D-07 -.184355222980D+01 -.262632966042D-06
     .933586011170D+00  .235000000000D+03  .985386180467D+00 -.809748014969D-08
    -.331442377334D-09  .100000000000D+01  .232100000000D+04  .000000000000D+00
     .240000000000D+01  .000000000000D+00  .232830643654D-08  .520000000000D+02
     .180000000000D+06  .400000000000D+01
30 24  7  2  4  0  0.0 -.364840496331D-03  .636646291241D-11  .000000000000D+00
     .270000000000D+02 -.971875000000D+01  .555630287089D-08  .177169625970D+01
    -.482425093651D-06  .719096814282D-02  .732205808163D-05  .515361317062D+04
     .187200000000D+06 -.188127160072D-06 -.174577567299D+01  .745058059692D-07
     .935002406992D+00  .229218750000D+03 -.245079174712D+01 -.838892086080D-08
    -.352871841386D-09  .100000000000D+01  .232100000000D+04  .000000000000D+00
     .240000000000D+01  .000000000000D+00  .419095158577D-08  .270000000000D+02
     .180000000000D+06  .400000000000D+01
21 24  7  2  4  0  0.0  .111693050712D-03 -.261479726760D-11  .000000000000D+00
     .280000000000D+02 -.613750000000D+02  .446732893932D-08 -.166688012208D+01
    -.307522714138D-05  .251928967191D-01  .295229256153D-05  .515367899323D+04
     .187200000000D+06 -.433996319771D-06  .130375529572D+01 -.223517417908D-06
     .961338452200D+00  .329375000000D+03 -.554083335612D+00 -.844642325600D-08
     .118933525487D-09  .100000000000D+01  .232100000000D+04  .000000000000D+00
     .240000000000D+01  .000000000000D+00 -.102445483208D-07  .280000000000D+02
     .180000000000D+06  .400000000000D+01
